{
  "type": "FeatureCollection",
  "features": [
    {
      "type": "Feature",
      "properties": {
        "norad_id": 66864,
        "name": "STARLINK-36070",
        "group": "last-30-days",
        "lat": -7.414803621604042,
        "lon": -44.21579187988349,
        "alt_km": 292.693083162515,
        "timestamp": "2025-12-11T20:41:13.849223+00:00",
        "meta_object_name": "STARLINK-36070",
        "meta_object_id": "2025-281S",
        "meta_epoch": "2025-12-10T16:00:01.999584",
        "meta_mean_motion": 15.96435157,
        "meta_eccentricity": 0.00015459,
        "meta_inclination": 43.0019,
        "meta_ra_of_asc_node": 135.2256,
        "meta_arg_of_pericenter": 273.7453,
        "meta_mean_anomaly": 245.1559,
        "meta_ephemeris_type": 0,
        "meta_classification_type": "U",
        "meta_norad_cat_id": 66864,
        "meta_element_set_no": 999,
        "meta_rev_at_epoch": 246,
        "meta_bstar": -0.0028280569,
        "meta_mean_motion_dot": -0.01231853,
        "meta_mean_motion_ddot": 0.00046228589,
        "tle_line1": "1 66864U 25281S   25344.66668981 -.01231853  46229-3 -28281-2 0  9990",
        "tle_line2": "2 66864  43.0019 135.2256 0001545 273.7453 245.1559 15.96435157  2468"
      },
      "geometry": {
        "type": "Point",
        "coordinates": [
          -44.21579187988349,
          -7.414803621604042
        ]
      }
    },
    {
      "type": "Feature",
      "properties": {
        "norad_id": 66865,
        "name": "STARLINK-36117",
        "group": "last-30-days",
        "lat": -10.86091811452502,
        "lon": -40.37472798613062,
        "alt_km": 292.4535339465274,
        "timestamp": "2025-12-11T20:41:13.849233+00:00",
        "meta_object_name": "STARLINK-36117",
        "meta_object_id": "2025-281T",
        "meta_epoch": "2025-12-10T16:00:01.999584",
        "meta_mean_motion": 15.96583953,
        "meta_eccentricity": 0.00015871,
        "meta_inclination": 43.0019,
        "meta_ra_of_asc_node": 135.2145,
        "meta_arg_of_pericenter": 270.3957,
        "meta_mean_anomaly": 253.0482,
        "meta_ephemeris_type": 0,
        "meta_classification_type": "U",
        "meta_norad_cat_id": 66865,
        "meta_element_set_no": 999,
        "meta_rev_at_epoch": 246,
        "meta_bstar": -0.0028296854,
        "meta_mean_motion_dot": -0.01242568,
        "meta_mean_motion_ddot": 0.00047038241,
        "tle_line1": "1 66865U 25281T   25344.66668981 -.01242568  47038-3 -28297-2 0  9992",
        "tle_line2": "2 66865  43.0019 135.2145 0001587 270.3957 253.0482 15.96583953  2465"
      },
      "geometry": {
        "type": "Point",
        "coordinates": [
          -40.37472798613062,
          -10.86091811452502
        ]
      }
    },
    {
      "type": "Feature",
      "properties": {
        "norad_id": 66866,
        "name": "STARLINK-36126",
        "group": "last-30-days",
        "lat": -12.316499823885893,
        "lon": -38.71098689447206,
        "alt_km": 292.54104454262506,
        "timestamp": "2025-12-11T20:41:13.849244+00:00",
        "meta_object_name": "STARLINK-36126",
        "meta_object_id": "2025-281U",
        "meta_epoch": "2025-12-10T18:00:02.000160",
        "meta_mean_motion": 15.96440327,
        "meta_eccentricity": 0.0001689,
        "meta_inclination": 43.002,
        "meta_ra_of_asc_node": 134.6885,
        "meta_arg_of_pericenter": 273.0721,
        "meta_mean_anomaly": 11.8299,
        "meta_ephemeris_type": 0,
        "meta_classification_type": "U",
        "meta_norad_cat_id": 66866,
        "meta_element_set_no": 999,
        "meta_rev_at_epoch": 247,
        "meta_bstar": -0.0028095,
        "meta_mean_motion_dot": -0.01224235,
        "meta_mean_motion_ddot": 0.0004571,
        "tle_line1": "1 66866U 25281U   25344.75002315 -.01224235  45710-3 -28095-2 0  9998",
        "tle_line2": "2 66866  43.0020 134.6885 0001689 273.0721  11.8299 15.96440327  2478"
      },
      "geometry": {
        "type": "Point",
        "coordinates": [
          -38.71098689447206,
          -12.316499823885893
        ]
      }
    },
    {
      "type": "Feature",
      "properties": {
        "norad_id": 66867,
        "name": "STARLINK-36101",
        "group": "last-30-days",
        "lat": -14.236234274947694,
        "lon": -36.47023495643379,
        "alt_km": 292.49496209320387,
        "timestamp": "2025-12-11T20:41:13.849254+00:00",
        "meta_object_name": "STARLINK-36101",
        "meta_object_id": "2025-281V",
        "meta_epoch": "2025-12-10T18:00:02.000160",
        "meta_mean_motion": 15.96520047,
        "meta_eccentricity": 0.0001686,
        "meta_inclination": 43.0022,
        "meta_ra_of_asc_node": 134.6817,
        "meta_arg_of_pericenter": 274.9191,
        "meta_mean_anomaly": 12.5728,
        "meta_ephemeris_type": 0,
        "meta_classification_type": "U",
        "meta_norad_cat_id": 66867,
        "meta_element_set_no": 999,
        "meta_rev_at_epoch": 247,
        "meta_bstar": -0.0027961,
        "meta_mean_motion_dot": -0.01223728,
        "meta_mean_motion_ddot": 0.00045712,
        "tle_line1": "1 66867U 25281V   25344.75002315 -.01223728  45712-3 -27961-2 0  9998",
        "tle_line2": "2 66867  43.0022 134.6817 0001686 274.9191  12.5728 15.96520047  2477"
      },
      "geometry": {
        "type": "Point",
        "coordinates": [
          -36.47023495643379,
          -14.236234274947694
        ]
      }
    },
    {
      "type": "Feature",
      "properties": {
        "norad_id": 66868,
        "name": "STARLINK-36108",
        "group": "last-30-days",
        "lat": -16.272085533039476,
        "lon": -34.02288527368491,
        "alt_km": 292.31730292467364,
        "timestamp": "2025-12-11T20:41:13.849264+00:00",
        "meta_object_name": "STARLINK-36108",
        "meta_object_id": "2025-281W",
        "meta_epoch": "2025-12-10T18:00:02.000160",
        "meta_mean_motion": 15.96614278,
        "meta_eccentricity": 0.0001671,
        "meta_inclination": 43.002,
        "meta_ra_of_asc_node": 134.6746,
        "meta_arg_of_pericenter": 272.8842,
        "meta_mean_anomaly": 17.3898,
        "meta_ephemeris_type": 0,
        "meta_classification_type": "U",
        "meta_norad_cat_id": 66868,
        "meta_element_set_no": 999,
        "meta_rev_at_epoch": 247,
        "meta_bstar": -0.0028019,
        "meta_mean_motion_dot": -0.01232542,
        "meta_mean_motion_ddot": 0.00046361,
        "tle_line1": "1 66868U 25281W   25344.75002315 -.01232542  46361-3 -28019-2 0  9999",
        "tle_line2": "2 66868  43.0020 134.6746 0001671 272.8842  17.3898 15.96614278  2472"
      },
      "geometry": {
        "type": "Point",
        "coordinates": [
          -34.02288527368491,
          -16.272085533039476
        ]
      }
    },
    {
      "type": "Feature",
      "properties": {
        "norad_id": 66869,
        "name": "STARLINK-36092",
        "group": "last-30-days",
        "lat": -17.833547844423226,
        "lon": -32.08738764120381,
        "alt_km": 292.25238651856125,
        "timestamp": "2025-12-11T20:41:13.849275+00:00",
        "meta_object_name": "STARLINK-36092",
        "meta_object_id": "2025-281X",
        "meta_epoch": "2025-12-10T18:00:02.000160",
        "meta_mean_motion": 15.96687641,
        "meta_eccentricity": 0.0001731,
        "meta_inclination": 43.0021,
        "meta_ra_of_asc_node": 134.6691,
        "meta_arg_of_pericenter": 274.3433,
        "meta_mean_anomaly": 18.0804,
        "meta_ephemeris_type": 0,
        "meta_classification_type": "U",
        "meta_norad_cat_id": 66869,
        "meta_element_set_no": 999,
        "meta_rev_at_epoch": 247,
        "meta_bstar": -0.0027998,
        "meta_mean_motion_dot": -0.01236576,
        "meta_mean_motion_ddot": 0.00046674,
        "tle_line1": "1 66869U 25281X   25344.75002315 -.01236576  46674-3 -27998-2 0  9993",
        "tle_line2": "2 66869  43.0021 134.6691 0001731 274.3433  18.0804 15.96687641  2472"
      },
      "geometry": {
        "type": "Point",
        "coordinates": [
          -32.08738764120381,
          -17.833547844423226
        ]
      }
    },
    {
      "type": "Feature",
      "properties": {
        "norad_id": 66870,
        "name": "STARLINK-36114",
        "group": "last-30-days",
        "lat": -19.850967307687586,
        "lon": -29.49710844734444,
        "alt_km": 292.0455489099786,
        "timestamp": "2025-12-11T20:41:13.849488+00:00",
        "meta_object_name": "STARLINK-36114",
        "meta_object_id": "2025-281Y",
        "meta_epoch": "2025-12-10T18:00:02.000160",
        "meta_mean_motion": 15.96782568,
        "meta_eccentricity": 0.0001629,
        "meta_inclination": 43.002,
        "meta_ra_of_asc_node": 134.662,
        "meta_arg_of_pericenter": 272.0351,
        "meta_mean_anomaly": 23.2092,
        "meta_ephemeris_type": 0,
        "meta_classification_type": "U",
        "meta_norad_cat_id": 66870,
        "meta_element_set_no": 999,
        "meta_rev_at_epoch": 247,
        "meta_bstar": -0.002797,
        "meta_mean_motion_dot": -0.01241749,
        "meta_mean_motion_ddot": 0.00047077,
        "tle_line1": "1 66870U 25281Y   25344.75002315 -.01241749  47077-3 -27970-2 0  9991",
        "tle_line2": "2 66870  43.0020 134.6620 0001629 272.0351  23.2092 15.96782568  2476"
      },
      "geometry": {
        "type": "Point",
        "coordinates": [
          -29.49710844734444,
          -19.850967307687586
        ]
      }
    }
  ]
}